NORAD_CAT_ID,OBJECT_NAME,OBJECT_TYPE,EPOCH,MEAN_MOTION,ECCENTRICITY,INCLINATION,RA_OF_ASC_NODE,ARG_OF_PERICENTER,MEAN_ANOMALY,BSTAR,MEAN_MOTION_DOT,MEAN_MOTION_DDOT,TLE_LINE0,TLE_LINE1,TLE_LINE2,SEMIMAJOR_AXIS,PERIOD,APOGEE,PERIGEE,DECAYED
56773.0,STARLINK-6296,PAYLOAD,2023-08-04 02:30:38,15.69927027,0.0003679,69.9985,231.0338,266.871,93.2065,2.7189e-05,3.058e-05,0.0,0 STARLINK-6296,1 56773U 23078G   23216.10461292  .00003058  00000-0  27189-4 0  9994,2 56773  69.9985 231.0338 0003679 266.8710  93.2065 15.69927027 10487,6737.243,91.724,361.586,356.629,0.0
56773.0,STARLINK-6296,PAYLOAD,2023-08-05 02:58:39,15.69966259,0.0003204,69.9998,228.1686,249.2474,110.8379,0.00011466,0.0001362,0.0,0 STARLINK-6296,1 56773U 23078G   23217.12406302  .00013620  00000-0  11466-3 0  9994,2 56773  69.9998 228.1686 0003204 249.2474 110.8379 15.69966259 10642,6737.131,91.722,361.154,356.837,0.0
56773.0,STARLINK-6296,PAYLOAD,2023-08-05 10:37:27,15.69883841,0.0003045,69.9995,227.2716,267.0601,93.0246,-9.0647e-05,-0.00011079,0.0,0 STARLINK-6296,1 56773U 23078G   23217.44268109 -.00011079  00000-0 -90647-4 0  9997,2 56773  69.9995 227.2716 0003045 267.0601  93.0246 15.69883841 10691,6737.366,91.727,361.283,357.18,0.0
56773.0,STARLINK-6296,PAYLOAD,2023-08-06 01:54:59,15.69894711,0.000408,69.9995,225.4832,274.6618,85.4112,-2.2207e-05,-2.88e-05,0.0,0 STARLINK-6296,1 56773U 23078G   23218.07985621 -.00002880  00000-0 -22207-4 0  9999,2 56773  69.9995 225.4832 0004080 274.6618  85.4112 15.69894711 10798,6737.335,91.726,361.949,356.451,0.0
56773.0,STARLINK-6296,PAYLOAD,2023-08-06 09:33:44,15.69931407,0.0003225,69.9994,224.5863,264.5839,95.4989,8.3576e-05,9.851e-05,0.0,0 STARLINK-6296,1 56773U 23078G   23218.39842983  .00009851  00000-0  83576-4 0  9996,2 56773  69.9994 224.5863 0003225 264.5839  95.4989 15.69931407 10847,6737.23,91.724,361.268,356.922,0.0
56773.0,STARLINK-6296,PAYLOAD,2023-08-06 12:37:13,15.69948484,0.0003899,69.9996,224.227,262.3183,97.757,0.00013293,0.00015819,0.0,0 STARLINK-6296,1 56773U 23078G   23218.52585592  .00015819  00000-0  13293-3 0  9990,2 56773  69.9996 224.2270 0003899 262.3183  97.7570 15.69948484 10869,6737.181,91.723,361.673,356.42,0.0
56773.0,STARLINK-6296,PAYLOAD,2023-08-06 23:19:29,15.69955086,0.0003022,70.0005,222.9735,277.4136,82.6716,0.00013377,0.00015922,0.0,0 STARLINK-6296,1 56773U 23078G   23218.97186967  .00015922  00000-0  13377-3 0  9990,2 56773  70.0005 222.9735 0003022 277.4136  82.6716 15.69955086 10936,6737.162,91.722,361.063,356.992,0.0
56773.0,STARLINK-6296,PAYLOAD,2023-08-07 10:01:45,15.69922319,0.0002891,70.0003,221.7187,265.4572,94.6293,6.4771e-06,5.66e-06,0.0,0 STARLINK-6296,1 56773U 23078G   23219.41789326  .00000566  00000-0  64771-5 0  9992,2 56773  70.0003 221.7187 0002891 265.4572  94.6293 15.69922319 11001,6737.256,91.724,361.069,357.174,0.0
56773.0,STARLINK-6296,PAYLOAD,2023-08-08 10:29:47,15.69941702,0.0002918,69.9995,218.8538,253.5966,106.4909,3.5448e-05,4.055e-05,0.0,0 STARLINK-6296,1 56773U 23078G   23220.43735183  .00004055  00000-0  35448-4 0  9993,2 56773  69.9995 218.8538 0002918 253.5966 106.4909 15.69941702 11160,6737.201,91.723,361.032,357.1,0.0
56773.0,STARLINK-6296,PAYLOAD,2023-08-08 12:01:32,15.69956169,0.0002841,69.9999,218.674,272.4382,87.6488,8.7486e-05,0.00010333,0.0,0 STARLINK-6296,1 56773U 23078G   23220.50106510  .00010333  00000-0  87486-4 0  9992,2 56773  69.9999 218.6740 0002841 272.4382  87.6488 15.69956169 11170,6737.159,91.722,360.938,357.11,0.0
56773.0,STARLINK-6296,PAYLOAD,2023-08-09 09:26:04,15.69928312,0.0003232,69.9992,216.1655,261.2557,98.8273,2.6374e-05,2.96e-05,0.0,0 STARLINK-6296,1 56773U 23078G   23221.39310500  .00002960  00000-0  26374-4 0  9992,2 56773  69.9992 216.1655 0003232 261.2557  98.8273 15.69928312 11317,6737.239,91.724,361.282,356.927,0.0
56773.0,STARLINK-6296,PAYLOAD,2023-08-10 11:25:51,15.69927561,0.0002632,69.9997,213.121,275.7524,84.3371,2.3067e-05,2.562e-05,0.0,0 STARLINK-6296,1 56773U 23078G   23222.47629014  .00002562  00000-0  23067-4 0  9999,2 56773  69.9997 213.1210 0002632 275.7524  84.3371 15.69927561 11485,6737.241,91.724,360.879,357.333,0.0
56773.0,STARLINK-6296,PAYLOAD,2023-08-11 16:29:09,15.69912577,0.0003247,69.9983,209.7169,267.3237,92.7587,-2.1221e-05,-2.762e-05,0.0,0 STARLINK-6296,1 56773U 23078G   23223.68691083 -.00002762  00000-0 -21221-4 0  9992,2 56773  69.9983 209.7169 0003247 267.3237  92.7587 15.69912577 11679,6737.284,91.725,361.337,356.962,0.0
56773.0,STARLINK-6296,PAYLOAD,2023-08-12 01:39:39,15.69940651,0.0002831,69.9987,208.6424,265.9037,94.1835,5.1163e-05,5.947e-05,0.0,0 STARLINK-6296,1 56773U 23078G   23224.06920213  .00005947  00000-0  51163-4 0  9999,2 56773  69.9987 208.6424 0002831 265.9037  94.1835 15.69940651 11738,6737.204,91.723,360.976,357.161,0.0
56773.0,STARLINK-6296,PAYLOAD,2023-08-12 09:18:24,15.69931808,0.0003533,70.0011,207.7458,275.6319,84.4473,2.7504e-05,3.097e-05,0.0,0 STARLINK-6296,1 56773U 23078G   23224.38778772  .00003097  00000-0  27504-4 0  9991,2 56773  70.0011 207.7458 0003533 275.6319  84.4473 15.69931808 11786,6737.229,91.724,361.474,356.714,0.0
56773.0,STARLINK-6296,PAYLOAD,2023-08-13 08:14:42,15.69918989,0.000314,70.0017,205.0599,269.0445,91.0391,1.035e-05,1.032e-05,0.0,0 STARLINK-6296,1 56773U 23078G   23225.34354473  .00001032  00000-0  10350-4 0  9994,2 56773  70.0017 205.0599 0003140 269.0445  91.0391 15.69918989 11935,6737.266,91.724,361.246,357.015,0.0
56773.0,STARLINK-6296,PAYLOAD,2023-08-13 15:53:27,15.69928652,0.0003444,69.9986,204.1639,267.5945,92.4856,1.25e-05,1.291e-05,0.0,0 STARLINK-6296,1 56773U 23078G   23225.66212330  .00001291  00000-0  12500-4 0  9990,2 56773  69.9986 204.1639 0003444 267.5945  92.4856 15.69928652 11981,6737.238,91.724,361.423,356.783,0.0
56773.0,STARLINK-6296,PAYLOAD,2023-08-14 01:03:58,15.69922564,0.0003464,69.9979,203.0873,263.8458,96.2343,1.363e-05,1.426e-05,0.0,0 STARLINK-6296,1 56773U 23078G   23226.04442842  .00001426  00000-0  13630-4 0  9991,2 56773  69.9979 203.0873 0003464 263.8458  96.2343 15.69922564 12048,6737.256,91.724,361.454,356.787,0.0
56773.0,STARLINK-6296,PAYLOAD,2023-08-14 10:14:28,15.69933526,0.000319,69.9974,202.0138,267.2432,92.8399,-5.3314e-06,-8.54e-06,0.0,0 STARLINK-6296,1 56773U 23078G   23226.42672392 -.00000854  00000-0 -53314-5 0  9998,2 56773  69.9974 202.0138 0003190 267.2432  92.8399 15.69933526 12102,6737.224,91.724,361.238,356.94,0.0
56773.0,STARLINK-6296,PAYLOAD,2023-08-15 01:32:00,15.69926116,0.0003359,69.9966,200.2223,262.8605,97.2209,1.7655e-05,1.911e-05,0.0,0 STARLINK-6296,1 56773U 23078G   23227.06389235  .00001911  00000-0  17655-4 0  9990,2 56773  69.9966 200.2223 0003359 262.8605  97.2209 15.69926116 12205,6737.245,91.724,361.373,356.847,0.0
56773.0,STARLINK-6296,PAYLOAD,2023-08-15 07:39:01,15.69919013,0.0003147,69.998,199.5057,265.1108,94.9729,4.9936e-06,3.88e-06,0.0,0 STARLINK-6296,1 56773U 23078G   23227.31876661  .00000388  00000-0  49936-5 0  9997,2 56773  69.9980 199.5057 0003147 265.1108  94.9729 15.69919013 12248,6737.266,91.724,361.251,357.01,0.0
56773.0,STARLINK-6296,PAYLOAD,2023-08-15 15:17:46,15.69925541,0.0003083,69.9985,198.6089,267.7293,92.355,1.235e-05,1.273e-05,0.0,0 STARLINK-6296,1 56773U 23078G   23227.63734536  .00001273  00000-0  12350-4 0  9999,2 56773  69.9985 198.6089 0003083 267.7293  92.3550 15.69925541 12292,6737.247,91.724,361.189,357.035,0.0
56773.0,STARLINK-6296,PAYLOAD,2023-08-16 21:52:48,15.69928874,0.0003133,69.9976,195.0272,267.0177,93.0661,9.1837e-06,8.92e-06,0.0,0 STARLINK-6296,1 56773U 23078G   23228.91167766  .00000892  00000-0  91837-5 0  9990,2 56773  69.9976 195.0272 0003133 267.0177  93.0661 15.69928874 12492,6737.237,91.724,361.213,356.992,0.0
56773.0,STARLINK-6296,PAYLOAD,2023-08-18 01:24:21,15.69920051,0.0003145,69.9986,191.8036,264.2295,95.8542,4.3596e-06,3.11e-06,0.0,0 STARLINK-6296,1 56773U 23078G   23230.05858532  .00000311  00000-0  43596-5 0  9991,2 56773  69.9986 191.8036 0003145 264.2295  95.8542 15.69920051 12675,6737.263,91.724,361.247,357.009,0.0
56773.0,STARLINK-6296,PAYLOAD,2023-08-18 15:10:07,15.69928447,0.0003311,69.9986,190.1906,265.6237,94.458,1.7327e-05,1.871e-05,0.0,0 STARLINK-6296,1 56773U 23078G   23230.63202862  .00001871  00000-0  17327-4 0  9998,2 56773  69.9986 190.1906 0003311 265.6237  94.4580 15.69928447 12763,6737.239,91.724,361.334,356.873,0.0
56773.0,STARLINK-6296,PAYLOAD,2023-08-19 00:20:39,15.69913585,0.0004035,69.9978,189.1168,284.9201,75.1548,-1.4618e-05,-1.97e-05,0.0,0 STARLINK-6296,1 56773U 23078G   23231.01434315 -.00001970  00000-0 -14618-4 0  9993,2 56773  69.9978 189.1168 0004035 284.9201  75.1548 15.69913585 12825,6737.281,91.725,361.865,356.428,0.0
56773.0,STARLINK-6296,PAYLOAD,2023-08-19 06:27:39,15.69922305,0.0003573,69.9968,188.3991,275.5288,84.55,-4.4831e-06,-7.52e-06,0.0,0 STARLINK-6296,1 56773U 23078G   23231.26920185 -.00000752  00000-0 -44831-5 0  9993,2 56773  69.9968 188.3991 0003573 275.5288  84.5500 15.69922305 12862,6737.256,91.724,361.529,356.714,0.0
56773.0,STARLINK-6296,PAYLOAD,2023-08-20 08:27:26,15.69923759,0.000304,69.9993,185.3529,276.3184,83.7665,8.3285e-06,7.89e-06,0.0,0 STARLINK-6296,1 56773U 23078G   23232.35238509  .00000789  00000-0  83285-5 0  9990,2 56773  69.9993 185.3529 0003040 276.3184  83.7665 15.69923759 13034,6737.252,91.724,361.165,357.069,0.0
56773.0,STARLINK-6296,PAYLOAD,2023-08-22 00:13:00,15.69901407,0.0003367,69.9997,180.6965,275.3391,84.742,-3.543e-05,-4.467e-05,0.0,0 STARLINK-6296,1 56773U 23078G   23234.00902887 -.00004467  00000-0 -35430-4 0  9998,2 56773  69.9997 180.6965 0003367 275.3391  84.7420 15.69901407 13295,6737.316,91.726,361.45,356.913,0.0
56773.0,STARLINK-6296,PAYLOAD,2023-08-22 07:51:45,15.69915825,0.0003126,70.0002,179.8017,269.3602,90.7235,-1.3785e-05,-1.869e-05,0.0,0 STARLINK-6296,1 56773U 23078G   23234.32760742 -.00001869  00000-0 -13785-4 0  9997,2 56773  70.0002 179.8017 0003126 269.3602  90.7235 15.69915825 13340,6737.275,91.725,361.246,357.034,0.0
